STARLINK-34068          
1 63914U 25095AA  26068.32351005  .00032041  00000+0  11688-2 0  9990
2 63914  42.9971 178.1184 0000918 249.4112 110.6641 15.27579423 47722
2025-313BC              
1 67298U 25313BC  26068.18968176  .00075331  00000+0  26410-2 0  9997
2 67298  97.3985 144.8110 0008478 328.9209  31.1528 15.29126358  7890
